#aV2011  4 18  0  0   .00000000      96 DD+AD WGS84 FIT  NGA
## 1632  86400.00000000   900.00000000 55669  .0000000000000
+   32     1  2  3  4  5  6  7  8  9 10 11 12 13 14 15 16 17
+         18 19 20 21 22 23 24 25 26 27 28 29 30 31 32  0  0
+          0  0  0  0  0  0  0  0  0  0  0  0  0  0  0  0  0
+          0  0  0  0  0  0  0  0  0  0  0  0  0  0  0  0  0
+          0  0  0  0  0  0  0  0  0  0  0  0  0  0  0  0  0
++         0  0  0  0  0  0  0  0  0  0  0  0  0  0  0  0  0
++         0  0  0  0  0  0  0  0  0  0  0  0  0  0  0  0  0
++         0  0  0  0  0  0  0  0  0  0  0  0  0  0  0  0  0
++         0  0  0  0  0  0  0  0  0  0  0  0  0  0  0  0  0
++         0  0  0  0  0  0  0  0  0  0  0  0  0  0  0  0  0
%c cc cc ccc ccc cccc cccc cccc cccc ccccc ccccc ccccc ccccc
%c cc cc ccc ccc cccc cccc cccc cccc ccccc ccccc ccccc ccccc
%f  0.0000000  0.000000000  0.00000000000  0.000000000000000
%f  0.0000000  0.000000000  0.00000000000  0.000000000000000
%i    0    0    0    0      0      0      0      0         0
%i    0    0    0    0      0      0      0      0         0
/*      NGA, ST. LOUIS,MO.                                  
/*   EPHEMERIS COMPUTED FROM  3 DAYS OF DATA                
/* CCCCCCCCCCCCCCCCCCCCCCCCCCCCCCCCCCCCCCCCCCCCCCCCCCCCCCCCC
/* CCCCCCCCCCCCCCCCCCCCCCCCCCCCCCCCCCCCCCCCCCCCCCCCCCCCCCCCC
*  2011  4 18 23 15   .00000000                                                 
P  1  14555.150191  -4981.257467  21551.306848   -223.475605                    
V  1  15354.675836  22931.884152  -4900.792419      -.025193                    
P  2 -15483.590153  13599.391246  16523.561876    331.613461                    
V  2 -21306.444308   -501.870133 -20084.727218       .021631                    
P  3  10076.360138 -24193.117390   2647.831459    703.812909                    
V  3   2699.643573   5001.342223  30976.186512       .050401                    
P  4 -25163.579835   6452.923470   6143.250490     92.058511                    
V  4  -8230.505609  -2492.990916 -29731.886151       .104505                    
P  5  -4384.894153  17674.565366  19279.674791   -146.752374                    
V  5 -15135.703206 -19413.211871  14442.727648      -.057955                    
P  6  14165.982729 -21358.756514   6676.422249    665.642072                    
V  6    132.161729   9097.000113  29752.823327     -1.071367                    
P  7 -23113.231690  -6334.349828  11675.366535      8.528990                    
V  7  14559.695591  -2885.030922  27060.920181       .010386                    
P  8 -26788.581533  -1201.296322   1639.386349      7.746945                    
V  8   2021.918900  -1205.226098  32064.868413       .001380                    
P  9   5475.258816  14331.558426 -22233.433894     74.646830                    
V  9 -26693.556157   2890.863566  -4823.724629       .022923                    
P 10 -16015.386307   2780.535670  20850.775717    -71.926426                    
V 10 -14248.809086 -22877.076016  -7447.311653      -.009530                    
P 11  -4940.870456 -16173.258335 -20791.222368   -143.778604                    
V 11  24735.632098  -8168.739988    840.169623      -.030951                    
P 12  10558.046653  23639.828028  -6306.195087    -10.753503                    
V 12  -6203.749230  -5474.422113 -30603.679182       .027651                    
P 13 -10588.356157 -10383.897366  21882.589876    274.575286                    
V 13  14345.852326 -24122.138593  -4527.142362      -.014973                    
P 14  17874.723565  -8039.546427 -17703.287912    144.742173                    
V 14  -9754.351125  20645.183869 -19188.349812       .024088                    
P 15  -1651.959312  23725.361978 -11646.072934   -134.257648                    
V 15  -8703.501717  12387.055369  26616.323175       .028345                    
P 16   6125.154980 -15934.098309  20293.313413   -166.111657                    
V 16  14736.403538  21137.558313  12460.475489      -.027205                    
P 17 -17917.321944   7559.355223 -17852.852044    184.373026                    
V 17   8955.803173 -21288.577437 -18084.409827      -.000784                    
P 18  19621.679416  12785.625653 -12559.644359    132.569427                    
V 18   6713.543712  15183.684429  24949.876042       .019821                    
P 19   6528.271415 -23880.681648  -9127.261395   -131.839742                    
V 19   8416.681690  -8636.841762  28954.708249      -.038873                    
P 20 -13871.034463 -22499.689720  -3089.834214     48.967133                    
V 20   5101.948918    886.838626 -30777.126998       .001152                    
P 21  24209.357302   6044.254813  10349.947214   -138.424953                    
V 21 -12199.667003   3528.467843  26943.957956      -.026378                    
P 22  18029.084613   1271.819592 -19326.880436    149.987624                    
V 22  12426.031802  21720.688132  12805.597932      -.007675                    
P 23  -2680.504021 -20476.916533  16500.065849    312.385347                    
V 23  11081.569144 -18049.789951 -20932.024891      -.026158                    
P 24  -8929.345466 -14436.347084 -20434.879831    382.773419                    
V 24  26020.738266  -1531.858590  -9982.672132       .030812                    
P 25  18243.230929  18273.827119   6254.299213     -1.141803                    
V 25   2462.875845   8000.764606 -30464.548521       .001334                    
P 26 -11928.372535  23430.330868  -2004.715232     -6.395249                    
V 26  -2904.718551    457.911700  32483.066960      -.105649                    
P 27   -838.811396  14599.241555 -21495.529028    256.814891                    
V 27 -28684.920644   3168.421995   3476.685428       .036764                    
P 28 -18233.887490  -6156.872547 -17901.540627     32.279146                    
V 28 -11432.676134 -20756.635574  18012.750394       .024035                    
P 29   8998.881755  14050.718074  20755.459832    200.888624                    
V 29 -12892.814186  22775.595030  -9826.210991       .030175                    
P 30  11753.755853  -9387.251338  21482.279724    337.950554                    
V 30  17031.743844  22550.777151    554.740353       .027884                    
P 31  23900.575862  -7771.319272   9121.045680     68.413522                    
V 31  11304.777176   1040.030458 -29187.390488       .052036                    
P 32  -6157.692069 -24219.685851  -9295.092181   -237.704211                    
V 32   8084.447257   9313.350063 -28339.955681      -.073640                    
EOF
